NORAD_CAT_ID,OBJECT_NAME,OBJECT_TYPE,EPOCH,MEAN_MOTION,ECCENTRICITY,INCLINATION,RA_OF_ASC_NODE,ARG_OF_PERICENTER,MEAN_ANOMALY,BSTAR,MEAN_MOTION_DOT,MEAN_MOTION_DDOT,TLE_LINE0,TLE_LINE1,TLE_LINE2,SEMIMAJOR_AXIS,PERIOD,APOGEE,PERIGEE,DECAYED
49422.0,STARLINK-3161,PAYLOAD,2022-02-18 14:00:01,15.08850163,0.0002533,53.216,33.571,40.1415,71.6685,-0.001552,-0.00024912,0.0,0 STARLINK-3161,1 49422U 21104Q   22049.58334491 -.00024912  00000-0 -15520-2 0  9998,2 49422  53.2160  33.5710 0002533  40.1415  71.6685 15.08850163 16284,6917.849,95.437,541.467,537.962,0.0
49422.0,STARLINK-3161,PAYLOAD,2022-02-18 22:00:00,15.08843388,0.0002401,53.2165,32.0734,44.2691,79.1359,-0.00072692,-0.0001184,0.0,0 STARLINK-3161,1 49422U 21104Q   22049.91667824 -.00011840  00000-0 -72692-3 0  9994,2 49422  53.2165  32.0734 0002401  44.2691  79.1359 15.08843388  3596,6917.87,95.437,541.396,538.0740000000002,0.0
49422.0,STARLINK-3161,PAYLOAD,2022-02-19 14:00:01,15.08843133,0.00025,53.2165,29.0818,40.7872,105.7851,-0.0016942,-0.00027154,0.0,0 STARLINK-3161,1 49422U 21104Q   22050.58334491 -.00027154  00000-0 -16942-2 0  9990,2 49422  53.2165  29.0818 0002500  40.7872 105.7851 15.08843133 16435,6917.871,95.437,541.465,538.006,0.0
49422.0,STARLINK-3161,PAYLOAD,2022-02-19 22:00:00,15.08831246,0.0002393,53.217,27.5844,45.4462,112.7166,0.0016922,0.0002674,0.0,0 STARLINK-3161,1 49422U 21104Q   22050.91667824  .00026740  00000-0  16922-2 0  9992,2 49422  53.2170  27.5844 0002393  45.4462 112.7166 15.08831246  3569,6917.906999999997,95.438,541.428,538.117,0.0
49422.0,STARLINK-3161,PAYLOAD,2022-02-20 06:00:00,15.088393300000002,0.0002591,53.2169,26.0899,42.2158,127.5455,0.00046219,7.075e-05,0.0,0 STARLINK-3161,1 49422U 21104Q   22051.25001157  .00007075  00000-0  46219-3 0  9994,2 49422  53.2169  26.0899 0002591  42.2158 127.5455 15.08839330 16536,6917.882,95.438,541.54,537.955,0.0
49422.0,STARLINK-3161,PAYLOAD,2022-02-20 14:00:01,15.08869017,0.0002495,53.2167,24.5926,42.9267,138.4295,-0.0020908,-0.00033438,0.0,0 STARLINK-3161,1 49422U 21104Q   22051.58334491 -.00033438  00000-0 -20908-2 0  9990,2 49422  53.2167  24.5926 0002495  42.9267 138.4295 15.08869017  3599,6917.792,95.436,541.383,537.931,0.0
49422.0,STARLINK-3161,PAYLOAD,2022-02-20 22:00:00,15.08852004,0.0002358,53.217,23.0956,46.5087,146.4639,-0.00083918,-0.00013624,0.0,0 STARLINK-3161,1 49422U 21104Q   22051.91667824 -.00013624  00000-0 -83918-3 0  9992,2 49422  53.2170  23.0956 0002358  46.5087 146.4639 15.08852004  3564,6917.844,95.437,541.34,538.077,0.0
49422.0,STARLINK-3161,PAYLOAD,2022-02-21 14:00:01,15.0886608,0.0002399,53.2164,20.1036,42.7929,173.3654,-0.0046006,-0.00072823,0.0,0 STARLINK-3161,1 49422U 21104Q   22052.58334491 -.00072823  00000-0 -46006-2 0  9999,2 49422  53.2164  20.1036 0002399  42.7929 173.3654 15.08866080 16730,6917.801,95.436,541.325,538.006,0.0
49422.0,STARLINK-3161,PAYLOAD,2022-02-21 22:00:00,15.08820925,0.0002294,53.2166,18.6068,46.4396,181.3123,0.00082249,0.00012819,0.0,0 STARLINK-3161,1 49422U 21104Q   22052.91667824  .00012819  00000-0  82249-3 0  9992,2 49422  53.2166  18.6068 0002294  46.4396 181.3123 15.08820925  3590,6917.939,95.439,541.391,538.217,0.0
49422.0,STARLINK-3161,PAYLOAD,2022-02-22 06:00:00,15.08812676,0.0002518,53.2164,17.1122,42.6474,196.6851,0.0013649,0.00021485,0.0,0 STARLINK-3161,1 49422U 21104Q   22053.25001157  .00021485  00000-0  13649-2 0  9997,2 49422  53.2164  17.1122 0002518  42.6474 196.6851 15.08812676 16839,6917.964,95.439,541.571,538.087,0.0
49422.0,STARLINK-3161,PAYLOAD,2022-02-22 14:00:01,15.08843672,0.000241,53.216,15.6147,44.109,206.7945,-0.0016081,-0.00025794,0.0,0 STARLINK-3161,1 49422U 21104Q   22053.58334491 -.00025794  00000-0 -16081-2 0  9995,2 49422  53.2160  15.6147 0002410  44.1090 206.7945 15.08843672  3582,6917.869000000002,95.437,541.401,538.067,0.0
49422.0,STARLINK-3161,PAYLOAD,2022-02-22 22:00:00,15.08844369,0.000238,53.2161,14.1179,48.6956,213.7976,0.0006265,9.698e-05,0.0,0 STARLINK-3161,1 49422U 21104Q   22053.91667824  .00009698  00000-0  62650-3 0  9998,2 49422  53.2161  14.1179 0002380  48.6956 213.7976 15.08844369  3584,6917.8669999999975,95.437,541.378,538.086,0.0
49422.0,STARLINK-3161,PAYLOAD,2022-02-23 14:00:01,15.08876584,0.0002434,53.2158,11.1254,45.1306,240.5694,-0.004427,-0.00070133,0.0,0 STARLINK-3161,1 49422U 21104Q   22054.58334491 -.00070133  00000-0 -44270-2 0  9994,2 49422  53.2158  11.1254 0002434  45.1306 240.5694 15.08876584 17036,6917.769,95.435,541.317,537.95,0.0
49422.0,STARLINK-3161,PAYLOAD,2022-02-23 22:00:00,15.08837416,0.0002391,53.2159,9.6285,48.2544,249.0488,0.00030862,4.627e-05,0.0,0 STARLINK-3161,1 49422U 21104Q   22054.91667824  .00004627  00000-0  30862-3 0  9996,2 49422  53.2159   9.6285 0002391  48.2544 249.0488 15.08837416  3595,6917.888000000001,95.438,541.4069999999998,538.099,0.0
49422.0,STARLINK-3161,PAYLOAD,2022-02-24 06:00:00,15.08822471,0.0002595,53.216,8.1339,44.011,264.8871,0.0016885,0.00026674,0.0,0 STARLINK-3161,1 49422U 21104Q   22055.25001157  .00026674  00000-0  16885-2 0  9999,2 49422  53.2160   8.1339 0002595  44.0110 264.8871 15.08822471 17131,6917.934,95.439,541.594,538.004,0.0
49422.0,STARLINK-3161,PAYLOAD,2022-02-24 14:00:01,15.08843787,0.0002447,53.2159,6.6359,44.6805,275.8097,-0.0025263,-0.00040276,0.0,0 STARLINK-3161,1 49422U 21104Q   22055.58334491 -.00040276  00000-0 -25263-2 0  9991,2 49422  53.2159   6.6359 0002447  44.6805 275.8097 15.08843787  3586,6917.869000000002,95.437,541.427,538.0409999999998,0.0
49422.0,STARLINK-3161,PAYLOAD,2022-02-24 22:00:00,15.08836927,0.0002433,53.2162,5.1392,47.5238,284.5456,1.198e-05,-9.8e-07,0.0,0 STARLINK-3161,1 49422U 21104Q   22055.91667824 -.00000098  00000-0  11980-4 0  9997,2 49422  53.2162   5.1392 0002433  47.5238 284.5456 15.08836927  3560,6917.89,95.438,541.438,538.072,0.0
49422.0,STARLINK-3161,PAYLOAD,2022-02-25 06:00:00,15.08815527,0.0002647,53.2163,3.6444,44.2919,299.3734,0.0027222,0.00043274,0.0,0 STARLINK-3161,1 49422U 21104Q   22056.25001157  .00043274  00000-0  27222-2 0  9992,2 49422  53.2163   3.6444 0002647  44.2919 299.3734 15.08815527 17289,6917.955,95.439,541.651,537.989,0.0
49422.0,STARLINK-3161,PAYLOAD,2022-02-25 14:00:01,15.08848841,0.0002498,53.2163,2.1465,45.9165,309.3307,-0.0011517,-0.00018576,0.0,0 STARLINK-3161,1 49422U 21104Q   22056.58334491 -.00018576  00000-0 -11517-2 0  9997,2 49422  53.2163   2.1465 0002498  45.9165 309.3307 15.08848841  3582,6917.853,95.437,541.446,537.99,0.0
49422.0,STARLINK-3161,PAYLOAD,2022-02-25 22:00:00,15.08859245,0.0002543,53.2166,0.6499,48.992,317.8469,-0.00056659,-9.3e-05,0.0,0 STARLINK-3161,1 49422U 21104Q   22056.91667824 -.00009300  00000-0 -56659-3 0  9995,2 49422  53.2166   0.6499 0002543  48.9920 317.8469 15.08859245 17395,6917.821999999999,95.436,541.446,537.927,0.0
49422.0,STARLINK-3161,PAYLOAD,2022-02-26 14:00:01,15.08838971,0.0002504,53.2168,357.6569,47.4091,342.672,-0.00017291,-3.039e-05,0.0,0 STARLINK-3161,1 49422U 21104Q   22057.58334491 -.00003039  00000-0 -17291-3 0  9992,2 49422  53.2168 357.6569 0002504  47.4091 342.6720 15.08838971  3608,6917.884,95.438,541.481,538.016,0.0
49422.0,STARLINK-3161,PAYLOAD,2022-02-26 22:00:00,15.08866463,0.0002478,53.2171,356.1606,48.121,353.5442,-0.0037315,-0.00059233,0.0,0 STARLINK-3161,1 49422U 21104Q   22057.91667824 -.00059233  00000-0 -37315-2 0  9993,2 49422  53.2171 356.1606 0002478  48.1210 353.5442 15.08866463  3608,6917.8,95.436,541.379,537.95,0.0
49422.0,STARLINK-3161,PAYLOAD,2022-02-27 06:00:00,15.08795631,0.00026,53.217,354.6657,43.8143,9.4516,0.0030094,0.00047875,0.0,0 STARLINK-3161,1 49422U 21104Q   22058.25001157  .00047875  00000-0  30094-2 0  9996,2 49422  53.2170 354.6657 0002600  43.8143   9.4516 15.08795631 17590,6918.016,95.44,541.68,538.082,0.0
49422.0,STARLINK-3161,PAYLOAD,2022-02-27 14:00:01,15.08816407,0.000243,53.2171,353.1676,47.3636,17.4685,0.00072306,0.00011231,0.0,0 STARLINK-3161,1 49422U 21104Q   22058.58334491  .00011231  00000-0  72306-3 0  9992,2 49422  53.2171 353.1676 0002430  47.3636  17.4685 15.08816407  3612,6917.953,95.439,541.499,538.136,0.0
49422.0,STARLINK-3161,PAYLOAD,2022-02-27 22:00:00,15.08847068,0.0002468,53.2172,351.6716,49.1787,27.2219,-0.001252,-0.00020164,0.0,0 STARLINK-3161,1 49422U 21104Q   22058.91667824 -.00020164  00000-0 -12520-2 0  9996,2 49422  53.2172 351.6716 0002468  49.1787  27.2219 15.08847068 17691,6917.859,95.437,541.431,538.016,0.0
49422.0,STARLINK-3161,PAYLOAD,2022-02-28 14:00:01,15.08836335,0.0002429,53.217,348.6786,49.6608,49.9428,0.0014199999999999,0.00022382,0.0,0 STARLINK-3161,1 49422U 21104Q   22059.58334491  .00022382  00000-0  14200-2 0  9990,2 49422  53.2170 348.6786 0002429  49.6608  49.9428 15.08836335 17795,6917.892,95.438,541.437,538.076,0.0
49422.0,STARLINK-3161,PAYLOAD,2022-02-28 22:00:00,15.08863124,0.0002535,53.2172,347.1822,51.3284,59.8628,-0.0016454999999999,-0.00026399,0.0,0 STARLINK-3161,1 49422U 21104Q   22059.91667824 -.00026399  00000-0 -16455-2 0  9994,2 49422  53.2172 347.1822 0002535  51.3284  59.8628 15.08863124  3591,6917.81,95.436,541.428,537.9209999999998,0.0
49422.0,STARLINK-3161,PAYLOAD,2022-03-01 14:00:01,15.08822568,0.0002383,53.2165,344.1896,50.542,83.8885,0.0017719,0.00028011,0.0,0 STARLINK-3161,1 49422U 21104Q   22060.58334491  .00028011  00000-0  17719-2 0  9995,2 49422  53.2165 344.1896 0002383  50.5420  83.8885 15.08822568 17948,6917.934,95.439,541.447,538.15,0.0
49422.0,STARLINK-3161,PAYLOAD,2022-03-01 22:00:01,15.08871686,0.0002442,53.2166,342.6939,51.452,94.6236,-0.0042516,-0.00067382,0.0,0 STARLINK-3161,1 49422U 21104Q   22060.91668981 -.00067382  00000-0 -42516-2 0  9995,2 49422  53.2166 342.6939 0002442  51.4520  94.6236 15.08871686  3600,6917.784000000002,95.436,541.3380000000002,537.9590000000002,0.0
